#dP2021  6 24  0  0  0.00000000      96 __u+U ITR00 FIT  IAC
## 2163 345600.00000000   900.00000000 59389 0.0000000000000
+  125   C01C02C04C05C06C07C08C09C10C11C12C13C14C16C19C20C21
+        C22C23C24C25C26C27C28C29C30C32C33C34C35C36C37C38C39
+        C40C41C42C43C44C45C46C60E01E02E03E04E05E07E08E09E11
+        E12E13E14E15E18E19E21E24E25E26E27E30E31E33E36G01G02
+        G03G04G05G06G07G08G09G10G12G13G14G15G16G17G18G19G20
+        G21G22G23G24G25G26G27G28G29G30G31G32J01J02J03J07R01
+        R02R03R04R05R06R07R08R09R10R11R12R13R14R15R16R17R18
+        R19R20R21R22R23R24  0  0  0  0  0  0  0  0  0  0  0
++        13 12 13 13 10 10  9  9 10  9  9  9  9  9  8  8  8
++         8  8  8  8  8  8  8  8  8  8  8  8  8  8  8  9  8
++         9  9  8  8  8  8  8 13  4  4  4  4  4  5  5  4  4
++         4  4  4  4  4  5  4  4  4  4  5  5  4  5  5  4  4
++         4  4  4  4  4  3  4  4  4  4  3  3  4  4  4  4  4
++         4  4  3  4  4  4  4  4  4  4  4  4  8  8  8 14  8
++         6  6  6  6 13  6  6  6 13  8  6  8  6  5  7  6  6
++         7  8  6  8 13  6  0  0  0  0  0  0  0  0  0  0  0
%c M  cc GPS ccc cccc cccc cccc cccc ccccc ccccc ccccc ccccc
%c cc cc ccc ccc cccc cccc cccc cccc ccccc ccccc ccccc ccccc
%f  0.0000000  0.000000000  0.00000000000  0.000000000000000
%f  0.0000000  0.000000000  0.00000000000  0.000000000000000
%i    0    0    0    0      0      0      0      0         0
%i    0    0    0    0      0      0      0      0         0
/* INFORMATION & ANALYSIS CENTER (IAC)            RAPID DATA
/* S/V CLOCKS ARE ALIGNED TO GNSS TIME                      
/* G:C1WC2W R:C1PC2P E:C1XC5X C:C2IC6I J:C1CC2S             
/* PCV:IGS14_2148 OL/AL:FES2004  NONE     YN ORB:CoN CLK:CoN
*  2021 06 24  2 45  0.00000000
PC01 -34291.525979  24529.994906    209.166866   -340.421599
PC02   4359.514648  41896.519808  -1058.377772    567.067780
PC04 -39578.488528  14491.608933    583.211961   -275.419044
PC05  21915.643215  35977.254311   -951.252586    -75.797598
PC06  -7981.635178  25257.403466 -32222.568069    540.147432
PC07 -22075.069812  27648.059855  22817.207288     40.970905
PC08 -14439.455034  39130.820992   7538.499599   -896.908091
PC09   5840.621456  33200.886776 -24744.647421    425.298588
PC10  -7334.093787  28669.457581  30107.574451    -26.373560
PC11  -8812.451001  13201.702798  23009.996482    417.707735
PC12 -19739.592944  -4259.845039  19276.178519    833.938359
PC13  -6972.374507  41526.063662  -3960.207257    311.324561
PC14 -19884.081549  13451.458234 -14149.079265    871.184471
PC16  -5016.681068  26770.334623 -32000.495470   -918.553327
PC19  10432.802064 -16079.094279  20318.776014    883.793545
PC20  25183.053715  -9570.511763   7366.037226   -866.232133
PC21 -25570.018967  -3098.880526  10725.174336   -935.113189
PC22 -10806.500430 -13500.597747  21900.638913   -949.206288
PC23   4212.105771  22147.768866  16454.639763   -945.954163
PC24 -17717.502767  14447.368345 -16017.945846   -906.958385
PC25  -8558.023166  26554.888938    954.120552   -896.313279
PC26 -15756.771197  -3995.956045 -22688.202777    888.395082
PC27  21389.579778  12864.417118 -12487.673411    553.284998
PC28  14436.877647  23378.622292   4893.794329    -58.696395
PC29    236.395781 -20143.013823 -19324.240623    410.255432
PC30  15937.057949  -5214.128875 -22312.528301    471.738062
PC32  25619.972163   2878.119275 -10681.997025   -924.380391
PC33 -10395.061149  16131.416879 -20243.249458   -938.097910
PC34 -15512.092750   5892.538035  22424.900730   -643.504875
PC35 -14991.231676 -22969.035446  -5247.386622   -219.010250
PC36   9434.366907 -26258.412370   -557.355691   -728.755876
PC37  15289.299293   5417.284426  22729.684443   -871.529613
PC38 -13135.109079  39767.717030   5479.555934    157.253618
PC39  -1938.953564  27737.962113 -31632.571985     31.972850
PC40 -16204.483709  23806.368132  30767.930379    173.953623
PC41  10553.701257  13586.830837 -21920.484615   -950.726565
PC42 -25520.779410   9124.339212  -6557.188023   -914.771075
PC43   -893.415379  19905.506202  19516.441725   -790.346837
PC44 -21869.647361 -12316.373040  12218.106935    254.980507
PC45  -4262.010247 -22014.106595 -16592.672572    475.366352
PC46  17437.519661 -15432.840859  15367.720821    210.284053
PC60   7329.588916  41489.229547   1495.103806     -0.560257
PE01  24088.860244 -16071.047511   6138.261514  -1135.726243
PE02 -24062.664138  16168.684001  -6005.679241    228.218272
PE03 -23201.401854   5554.004530 -17507.501748   -445.278331
PE04   4816.872156 -16422.814441  24161.325101   -798.902282
PE05 -28267.185205  -8762.284787   -456.926470   -270.542273
PE07  16817.068602  17791.681105 -16635.898371   -553.535592
PE08  -4292.323068  16422.417482 -24243.217406   5981.142815
PE09 -17057.523122 -17585.972417  16607.861864   5623.362580
PE11 -10531.783940 -26814.327733   6823.396572   5811.185468
PE12   2414.776855 -26739.970408 -12489.846281   5144.946540
PE13  10378.735728  26959.273298  -6444.650687    418.140773
PE14   5049.872568  18577.442591  15878.090489  -1476.732936
PE15  -2262.679659  26742.142532  12480.265481    807.155300
PE18   4893.889152 -20172.999785 -23738.026686  -1617.742398
PE19  24609.743143  -3827.543616  16007.162511    309.893341
PE21  21125.449250   -243.758859  20735.270429   -672.403312
PE24  -4999.188130 -17043.190791 -23685.051091   -971.255601
PE25 -21017.995894     56.622249 -20834.932436   -537.872865
PE26  17039.780848  10431.860395 -21844.780316   1657.944732
PE27   5853.068837  16437.244949  23917.181344    -60.894447
PE30 -13683.201855  23271.887137  12143.918410   2838.921496
PE31  12756.122597 -23328.290287 -13002.069034   -482.533915
PE33  13540.286826 -10788.726964 -24012.380135   -468.704548
PE36 -16877.393529 -11318.457203  21521.690747   -225.122481
PG01 -13220.822155  10437.993807  20172.610363    649.065078
PG02  13261.749709  14957.029952 -16809.821166   -614.665521
PG03 -23379.052120  12146.957988   2739.026062   -200.647539
PG04 -19024.579947   3615.937839 -18196.692684   -200.733086
PG05  22163.758465  -2273.783726 -14755.719452    -45.861787
PG06   6979.836314  23703.183581  -9611.926865     30.803064
PG07  -7137.413800  22837.720563 -10617.619614    185.927023
PG08 -24133.382249  -4280.747488  10595.539071    -26.255641
PG09  -8861.078696  12718.130329 -21629.388277   -352.569887
PG10   2216.515163 -17437.113228  19944.681768   -148.444389
PG12  24272.483961  -9891.488284   3561.760543    -59.200669
PG13  22878.871371  12858.473009   4412.905101    148.813567
PG14  -2971.428025  17532.428402  19710.994668     62.867155
PG15  24521.421939   1606.662327  10140.418776   -140.274176
PG16 -19333.501944  -4203.454946 -18183.167081   -346.162826
PG17   5900.850670  18372.388306  18674.794418    463.243289
PG18   5547.524871 -24591.605414  -8256.195050    345.166972
PG19  14296.622467  19140.795838  11458.661048     17.385649
PG20  19635.726260    484.783307 -17734.582015    520.862759
PG21 -15524.064736   1697.838872  22185.365111    127.000842
PG22 -22903.999743   6623.890893  11680.228783   -580.750054
PG23  13418.617593 -19120.988742  12567.271450     93.292419
PG24  15039.262566  -5251.334715  20964.313585    146.196571
PG25  18708.136543 -17365.183192  -7076.853130    161.387345
PG26 -10976.597769 -11378.056466 -21417.265633    102.218032
PG27 -23662.289780 -12489.845733    402.336347   -152.100292
PG28   3060.802217  15263.113889  22089.671113    549.504952
PG29  10466.564399 -10686.088267 -22001.671391   -369.164540
PG30   1036.721857  26379.635802   1329.304577   -442.701226
PG31  -8440.658650 -21985.248682 -11891.045561   -124.800995
PG32  -9645.379077 -18460.747588  16693.997502     17.288665
PJ01 -33317.379490  15296.978561 -16135.545748   -401.676759
PJ02 -28393.352520  31032.569448   2086.798276     -0.396178
PJ03 -24762.172251  23876.920234  29471.932712     -8.971983
PJ07 -25368.202702  33667.773337    -15.889976     -0.019409
PR01   1608.813772 -11059.257256  22935.318580     81.327559
PR02 -19233.213987  -7528.246961  15053.934334    483.498020
PR03 -25487.758203    300.524461  -1478.615574     38.248933
PR04 -17329.768318   7676.023780 -17042.675179     92.674615
PR05    399.184424  10822.738588 -23079.663614     74.113573
PR06  20092.582025   6700.181024 -14205.257648    200.240594
PR07  25376.835152   -665.436775   2299.666831    -42.250161
PR08  17205.991157  -7863.444007  17159.276605    -59.660407
PR09   7105.319994   9797.802439  22464.344804     -0.556135
PR10  14680.694617  -6501.834612  19793.364459    -72.165351
PR11  14565.485705 -20266.661824   5322.027583    -14.832748
PR12   5703.422377 -21413.298380 -12590.756868    239.695416
PR13  -6366.618399 -10382.232530 -22425.371460    -56.730103
PR14 -15117.986475   7477.540044 -19113.975792     65.691856
PR15 -14703.204043  20295.784140  -4716.171976    103.076452
PR16  -4447.085639  21281.035368  13427.964847    -16.833844
PR17 -13937.086542  -5993.005658  20494.616061    435.250122
PR18  -5827.850059  10463.593208  22519.989116     81.083151
PR19   4294.708519  21351.613389  13275.486527   -148.927963
PR20  13659.882144  20538.171587  -6419.925548    -51.375675
PR21  13504.172963   4914.081547 -21089.849673   -218.803899
PR22   5126.032249 -11460.531840 -22243.212924   -119.220278
PR23  -8732.076170 -22912.168998  -7048.432341     -8.109562
PR24 -14302.698106 -19897.908126   7067.448910     47.734015
EOF
